NORAD_CAT_ID,OBJECT_NAME,OBJECT_TYPE,EPOCH,MEAN_MOTION,ECCENTRICITY,INCLINATION,RA_OF_ASC_NODE,ARG_OF_PERICENTER,MEAN_ANOMALY,BSTAR,MEAN_MOTION_DOT,MEAN_MOTION_DDOT,TLE_LINE0,TLE_LINE1,TLE_LINE2,SEMIMAJOR_AXIS,PERIOD,APOGEE,PERIGEE,DECAYED
51798.0,STARLINK-3634,PAYLOAD,2023-12-03 14:31:36,15.08820831,0.0001484,53.2182,102.0513,96.607,263.5091,-0.00023826,-4.076e-05,0.0,0 STARLINK-3634,1 51798U 22017AG  23337.60527928 -.00004076  00000-0 -23826-3 0  9992,2 51798  53.2182 102.0513 0001484  96.6070 263.5091 15.08820831 99101,6917.939,95.439,540.831,538.777,0.0
51798.0,STARLINK-3634,PAYLOAD,2023-12-03 17:42:22,15.08814747,0.0001637,53.2187,101.4569,98.3759,261.7419,-0.00029045,-4.904e-05,0.0,0 STARLINK-3634,1 51798U 22017AG  23337.73776477 -.00004904  00000-0 -29045-3 0  9990,2 51798  53.2187 101.4569 0001637  98.3759 261.7419 15.08814747 99128,6917.958,95.439,540.955,538.69,0.0
51798.0,STARLINK-3634,PAYLOAD,2023-12-04 08:00:51,15.08818971,0.000169,53.2159,98.7809,44.9168,315.1961,-0.00010846,-2.013e-05,0.0,0 STARLINK-3634,1 51798U 22017AG  23338.33393011 -.00002013  00000-0 -10846-3 0  9994,2 51798  53.2159  98.7809 0001690  44.9168 315.1961 15.08818971 99211,6917.945,95.439,540.979,538.641,0.0
51798.0,STARLINK-3634,PAYLOAD,2023-12-04 12:47:00,15.08828104,0.0001576,53.217,97.8926,47.6199,312.4926,-4.9183e-05,-1.07e-05,0.0,0 STARLINK-3634,1 51798U 22017AG  23338.53264956 -.00001070  00000-0 -49183-4 0  9990,2 51798  53.2170  97.8926 0001576  47.6199 312.4926 15.08828104 99244,6917.917,95.438,540.872,538.691,0.0
51798.0,STARLINK-3634,PAYLOAD,2023-12-05 11:02:24,15.08841608,0.0001365,53.2163,93.7253,59.7825,300.3302,0.0010511,0.00016481,0.0,0 STARLINK-3634,1 51798U 22017AG  23339.46000948  .00016481  00000-0  10511-2 0  9993,2 51798  53.2163  93.7253 0001365  59.7825 300.3302 15.08841608 99383,6917.875,95.437,540.685,538.796,0.0
51798.0,STARLINK-3634,PAYLOAD,2023-12-05 12:37:47,15.08848717,0.0001584,53.2169,93.4285,55.535,304.5791,0.0011289,0.00017728,0.0,0 STARLINK-3634,1 51798U 22017AG  23339.52624906  .00017728  00000-0  11289-2 0  9994,2 51798  53.2169  93.4285 0001584  55.5350 304.5791 15.08848717 99398,6917.854,95.437,540.815,538.623,0.0
51798.0,STARLINK-3634,PAYLOAD,2023-12-05 17:23:56,15.08873244,0.0001538,53.2158,92.5347,71.0994,289.0164,0.0011693,0.00018387,0.0,0 STARLINK-3634,1 51798U 22017AG  23339.72495887  .00018387  00000-0  11693-2 0  9991,2 51798  53.2158  92.5347 0001538  71.0994 289.0164 15.08873244 99429,6917.779,95.435,540.708,538.58,0.0
51798.0,STARLINK-3634,PAYLOAD,2023-12-06 10:53:10,15.08856337,0.0001336,53.2164,89.2635,77.7574,282.3567,2.6067e-05,1.27e-06,0.0,0 STARLINK-3634,1 51798U 22017AG  23340.45359330  .00000127  00000-0  26067-4 0  9991,2 51798  53.2164  89.2635 0001336  77.7574 282.3567 15.08856337 99531,6917.83,95.437,540.62,538.771,0.0
51798.0,STARLINK-3634,PAYLOAD,2023-12-06 12:28:33,15.08852482,0.0001134,53.2164,88.9662,69.1279,290.9834,3.3287e-05,2.42e-06,0.0,0 STARLINK-3634,1 51798U 22017AG  23340.51983272  .00000242  00000-0  33287-4 0  9996,2 51798  53.2164  88.9662 0001134  69.1279 290.9834 15.08852482 99540,6917.842,95.437,540.492,538.923,0.0
51798.0,STARLINK-3634,PAYLOAD,2023-12-07 12:19:20,15.08842809,0.0001302,53.2176,84.5065,58.445,301.6669,-0.00011352,-2.094e-05,0.0,0 STARLINK-3634,1 51798U 22017AG  23341.51343603 -.00002094  00000-0 -11352-3 0  9992,2 51798  53.2176  84.5065 0001302  58.4450 301.6669 15.08842809 99695,6917.872,95.437,540.638,538.836,0.0
51798.0,STARLINK-3634,PAYLOAD,2023-12-08 12:10:08,15.08841394,0.0001329,53.2193,80.0487,98.0949,262.0194,0.00017916,2.565e-05,0.0,0 STARLINK-3634,1 51798U 22017AG  23342.50703724  .00002565  00000-0  17916-3 0  9999,2 51798  53.2193  80.0487 0001329  98.0949 262.0194 15.08841394 99843,6917.876,95.437,540.661,538.822,0.0
51798.0,STARLINK-3634,PAYLOAD,2023-12-09 12:00:55,15.0883804,0.0001232,53.2182,75.5851,94.1693,265.944,5.6371e-05,6.09e-06,0.0,0 STARLINK-3634,1 51798U 22017AG  23343.50063934  .00000609  00000-0  56371-4 0  9998,2 51798  53.2182  75.5851 0001232  94.1693 265.9440 15.08838040 99997,6917.886,95.438,540.604,538.899,0.0
51798.0,STARLINK-3634,PAYLOAD,2023-12-10 13:27:05,15.08839402,0.0001151,53.2187,70.8278,92.4394,267.673,5.5007e-05,5.88e-06,0.0,0 STARLINK-3634,1 51798U 22017AG  23344.56048393  .00000588  00000-0  55007-4 0  9998,2 51798  53.2187  70.8278 0001151  92.4394 267.6730 15.08839402100157,6917.882,95.438,540.543,538.951,0.0
51798.0,STARLINK-3634,PAYLOAD,2023-12-11 13:17:52,15.08844918,0.0001223,53.219,66.3679,79.0529,281.06,0.00016444,2.331e-05,0.0,0 STARLINK-3634,1 51798U 22017AG  23345.55407983  .00002331  00000-0  16444-3 0  9991,2 51798  53.2190  66.3679 0001223  79.0529 281.0600 15.08844918100308,6917.865,95.437,540.576,538.884,0.0
51798.0,STARLINK-3634,PAYLOAD,2023-12-12 11:33:16,15.08843372,0.0001634,53.2197,62.2051,62.619,297.4968,9.7009e-05,1.256e-05,0.0,0 STARLINK-3634,1 51798U 22017AG  23346.48144396  .00001256  00000-0  97009-4 0  9992,2 51798  53.2197  62.2051 0001634  62.6190 297.4968 15.08843372100448,6917.87,95.437,540.865,538.605,0.0
51798.0,STARLINK-3634,PAYLOAD,2023-12-13 11:24:03,15.08845137,0.0001452,53.2183,57.7488,70.2743,289.8405,5.4392e-05,5.78e-06,0.0,0 STARLINK-3634,1 51798U 22017AG  23347.47504151  .00000578  00000-0  54392-4 0  9995,2 51798  53.2183  57.7488 0001452  70.2743 289.8405 15.08845137100591,6917.865,95.437,540.734,538.725,0.0
51798.0,STARLINK-3634,PAYLOAD,2023-12-14 00:07:08,15.08842767,0.0001472,53.2183,55.3698,69.7148,290.4003,6.6357e-05,7.68e-06,0.0,0 STARLINK-3634,1 51798U 22017AG  23348.00496161  .00000768  00000-0  66357-4 0  9991,2 51798  53.2183  55.3698 0001472  69.7148 290.4003 15.08842767100679,6917.872,95.437,540.755,538.719,0.0
51798.0,STARLINK-3634,PAYLOAD,2023-12-14 11:14:50,15.08842751,0.0001455,53.2188,53.2872,91.4475,268.6684,9.3394e-05,1.199e-05,0.0,0 STARLINK-3634,1 51798U 22017AG  23348.46863975  .00001199  00000-0  93394-4 0  9992,2 51798  53.2188  53.2872 0001455  91.4475 268.6684 15.08842751100744,6917.872,95.437,540.744,538.73,0.0
51798.0,STARLINK-3634,PAYLOAD,2023-12-15 11:05:37,15.08844668,0.00016,53.2191,48.8264,112.887,247.2291,3.6017e-05,2.85e-06,0.0,0 STARLINK-3634,1 51798U 22017AG  23349.46223844  .00000285  00000-0  36017-4 0  9992,2 51798  53.2191  48.8264 0001600 112.8870 247.2291 15.08844668100894,6917.866,95.437,540.838,538.624,0.0
51798.0,STARLINK-3634,PAYLOAD,2023-12-16 10:56:25,15.08830404,0.0001635,53.219,44.363,116.9069,243.209,2.6635e-05,1.36e-06,0.0,0 STARLINK-3634,1 51798U 22017AG  23350.45585002  .00000136  00000-0  26635-4 0  9990,2 51798  53.2190  44.3630 0001635 116.9069 243.2090 15.08830404101048,6917.91,95.438,540.906,538.644,0.0
51798.0,STARLINK-3634,PAYLOAD,2023-12-17 10:47:12,15.08808467,0.0001649,53.219,39.8993,96.3776,263.7404,0.00055995,8.627e-05,0.0,0 STARLINK-3634,1 51798U 22017AG  23351.44945220  .00008627  00000-0  55995-3 0  9995,2 51798  53.2190  39.8993 0001649  96.3776 263.7404 15.08808467101196,6917.977,95.44,540.983,538.701,0.0
51798.0,STARLINK-3634,PAYLOAD,2023-12-18 10:37:59,15.08817362,0.0001993,53.2197,35.4421,65.4389,294.6811,0.00062267,9.63e-05,0.0,0 STARLINK-3634,1 51798U 22017AG  23352.44305208  .00009630  00000-0  62267-3 0  9997,2 51798  53.2197  35.4421 0001993  65.4389 294.6811 15.08817362101346,6917.95,95.439,541.193,538.436,0.0
51798.0,STARLINK-3634,PAYLOAD,2023-12-19 10:28:46,15.08842151,0.0001627,53.2177,30.9856,65.79,294.3262,2.4475e-05,1.02e-06,0.0,0 STARLINK-3634,1 51798U 22017AG  23353.43664801  .00000102  00000-0  24475-4 0  9999,2 51798  53.2177  30.9856 0001627  65.7900 294.3262 15.08842151101499,6917.874,95.437,540.864,538.613,0.0
51798.0,STARLINK-3634,PAYLOAD,2023-12-20 08:44:10,15.08842106,0.0001824,53.2189,26.8206,66.4173,293.7011,-4.0152e-05,-9.27e-06,0.0,0 STARLINK-3634,1 51798U 22017AG  23354.36401438 -.00000927  00000-0 -40152-4 0  9994,2 51798  53.2189  26.8206 0001824  66.4173 293.7011 15.08842106101635,6917.874,95.437,541.001,538.477,0.0
51798.0,STARLINK-3634,PAYLOAD,2023-12-21 08:34:57,15.08851436,0.0001648,53.2183,22.3537,74.0711,286.0462,0.00025852,3.83e-05,0.0,0 STARLINK-3634,1 51798U 22017AG  23355.35760662  .00003830  00000-0  25852-3 0  9994,2 51798  53.2183  22.3537 0001648  74.0711 286.0462 15.08851436101781,6917.845,95.437,540.85,538.57,0.0
51798.0,STARLINK-3634,PAYLOAD,2023-12-22 08:25:44,15.08839919,0.0001442,53.2183,17.8952,100.8956,259.2199,4.7231e-05,4.64e-06,0.0,0 STARLINK-3634,1 51798U 22017AG  23356.35121248  .00000464  00000-0  47231-4 0  9992,2 51798  53.2183  17.8952 0001442 100.8956 259.2199 15.08839919101930,6917.881,95.438,540.743,538.748,0.0
51798.0,STARLINK-3634,PAYLOAD,2023-12-23 08:16:30,15.08871184,0.0001598,53.2182,13.4333,95.9079,264.2095,0.00053505,8.245e-05,0.0,0 STARLINK-3634,1 51798U 22017AG  23357.34479346  .00008245  00000-0  53505-3 0  9992,2 51798  53.2182  13.4333 0001598  95.9079 264.2095 15.08871184102084,6917.785,95.436,540.756,538.545,0.0
51798.0,STARLINK-3634,PAYLOAD,2023-12-24 01:45:45,15.08840239,0.0001527,53.2174,10.1634,78.7451,281.3713,-0.00010125,-1.899e-05,0.0,0 STARLINK-3634,1 51798U 22017AG  23358.07344454 -.00001899  00000-0 -10125-3 0  9995,2 51798  53.2174  10.1634 0001527  78.7451 281.3713 15.08840239102194,6917.88,95.438,540.801,538.688,0.0
51798.0,STARLINK-3634,PAYLOAD,2023-12-24 08:07:18,15.08825556,0.0001361,53.2172,8.9757,86.9034,273.2114,-0.00034147,-5.716e-05,0.0,0 STARLINK-3634,1 51798U 22017AG  23358.33841027 -.00005716  00000-0 -34147-3 0  9994,2 51798  53.2172   8.9757 0001361  86.9034 273.2114 15.08825556102232,6917.925,95.438,540.731,538.848,0.0
51798.0,STARLINK-3634,PAYLOAD,2023-12-25 11:08:52,15.08859414,0.00015,53.2165,3.921,87.2015,272.9149,0.0012801,0.00020154,0.0,0 STARLINK-3634,1 51798U 22017AG  23359.46449276  .00020154  00000-0  12801-2 0  9992,2 51798  53.2165   3.9210 0001500  87.2015 272.9149 15.08859414102404,6917.821,95.436,540.724,538.648,0.0
